FLOCK 4BE-12            
1 60560U 24149CW  26062.38695917  .00112928  00000+0  23560-2 0  9991
2 60560  97.3776 146.2516 0005627 282.8062  77.2558 15.45111003 86099
FLOCK 4BE-3             
1 60561U 24149CX  26062.15865627  .00021202  00000+0  57029-3 0  9996
2 60561  97.3759 145.3141 0003157 310.1985  49.8983 15.37899632 86022
FLOCK 4BE-19            
1 60563U 24149CZ  26062.17442198  .00023847  00000+0  59869-3 0  9995
2 60563  97.3797 146.4101 0003216 316.7072  43.3921 15.39996120 86088
PELICAN-2               
1 62631U 25009Y   26062.22957773  .00071466  00000+0  17608-2 0  9999
2 62631  97.4002 152.4559 0007682 230.4759 129.5809 15.40285956 63240
PELICAN-3               
1 65315U 25188A   26061.66052410  .00004143  00000+0  10375-3 0  9993
2 65315  97.2276 139.2926 0003169 183.0757 177.0471 15.40637623 28911
PELICAN-4               
1 65316U 25188B   26062.19574815  .00011190  00000+0  27708-3 0  9999
2 65316  97.2332 139.9071 0004718 109.2283 250.9475 15.40574900 28999
