[{"OBJECT_NAME":"FLOCK 4BE-12","OBJECT_ID":"2024-149CW","EPOCH":"2026-03-03T09:17:13.272288","MEAN_MOTION":15.45111003,"ECCENTRICITY":0.0005627,"INCLINATION":97.3776,"RA_OF_ASC_NODE":146.2516,"ARG_OF_PERICENTER":282.8062,"MEAN_ANOMALY":77.2558,"EPHEMERIS_TYPE":0,"CLASSIFICATION_TYPE":"U","NORAD_CAT_ID":60560,"ELEMENT_SET_NO":999,"REV_AT_EPOCH":8609,"BSTAR":0.002356,"MEAN_MOTION_DOT":0.00112928,"MEAN_MOTION_DDOT":0},{"OBJECT_NAME":"FLOCK 4BE-3","OBJECT_ID":"2024-149CX","EPOCH":"2026-03-03T03:48:27.901728","MEAN_MOTION":15.37899632,"ECCENTRICITY":0.0003157,"INCLINATION":97.3759,"RA_OF_ASC_NODE":145.3141,"ARG_OF_PERICENTER":310.1985,"MEAN_ANOMALY":49.8983,"EPHEMERIS_TYPE":0,"CLASSIFICATION_TYPE":"U","NORAD_CAT_ID":60561,"ELEMENT_SET_NO":999,"REV_AT_EPOCH":8602,"BSTAR":0.00057029,"MEAN_MOTION_DOT":0.00021202,"MEAN_MOTION_DDOT":0},{"OBJECT_NAME":"FLOCK 4BE-19","OBJECT_ID":"2024-149CZ","EPOCH":"2026-03-03T04:11:10.059072","MEAN_MOTION":15.3999612,"ECCENTRICITY":0.0003216,"INCLINATION":97.3797,"RA_OF_ASC_NODE":146.4101,"ARG_OF_PERICENTER":316.7072,"MEAN_ANOMALY":43.3921,"EPHEMERIS_TYPE":0,"CLASSIFICATION_TYPE":"U","NORAD_CAT_ID":60563,"ELEMENT_SET_NO":999,"REV_AT_EPOCH":8608,"BSTAR":0.00059869,"MEAN_MOTION_DOT":0.00023847,"MEAN_MOTION_DDOT":0},{"OBJECT_NAME":"PELICAN-2","OBJECT_ID":"2025-009Y","EPOCH":"2026-03-03T05:30:35.515872","MEAN_MOTION":15.40285956,"ECCENTRICITY":0.0007682,"INCLINATION":97.4002,"RA_OF_ASC_NODE":152.4559,"ARG_OF_PERICENTER":230.4759,"MEAN_ANOMALY":129.5809,"EPHEMERIS_TYPE":0,"CLASSIFICATION_TYPE":"U","NORAD_CAT_ID":62631,"ELEMENT_SET_NO":999,"REV_AT_EPOCH":6324,"BSTAR":0.0017608,"MEAN_MOTION_DOT":0.00071466,"MEAN_MOTION_DDOT":0},{"OBJECT_NAME":"PELICAN-3","OBJECT_ID":"2025-188A","EPOCH":"2026-03-02T15:51:09.282240","MEAN_MOTION":15.40637623,"ECCENTRICITY":0.00031693,"INCLINATION":97.2276,"RA_OF_ASC_NODE":139.2926,"ARG_OF_PERICENTER":183.0757,"MEAN_ANOMALY":177.0471,"EPHEMERIS_TYPE":0,"CLASSIFICATION_TYPE":"U","NORAD_CAT_ID":65315,"ELEMENT_SET_NO":999,"REV_AT_EPOCH":2891,"BSTAR":0.00010374744,"MEAN_MOTION_DOT":4.143e-5,"MEAN_MOTION_DDOT":0},{"OBJECT_NAME":"PELICAN-4","OBJECT_ID":"2025-188B","EPOCH":"2026-03-03T04:41:52.640160","MEAN_MOTION":15.405749,"ECCENTRICITY":0.0004718,"INCLINATION":97.2332,"RA_OF_ASC_NODE":139.9071,"ARG_OF_PERICENTER":109.2283,"MEAN_ANOMALY":250.9475,"EPHEMERIS_TYPE":0,"CLASSIFICATION_TYPE":"U","NORAD_CAT_ID":65316,"ELEMENT_SET_NO":999,"REV_AT_EPOCH":2899,"BSTAR":0.00027708,"MEAN_MOTION_DOT":0.0001119,"MEAN_MOTION_DDOT":0}]
